1 08820U 76039A   03189.09596051  .00000023  00000-0  10000-3 0  9314
2 08820 109.8051 188.7541 0044565 296.9386  62.6730  6.38664465378397
